$GPGGA,184353.00,1304.965,N,08016.245,E,1,08,1.2,10.15,M,-33.9,M,,0000*4E
$GPRMC,184353.00,A,1304.965,N,08016.245,E,20.0,045.0,120926,,,A*6B
$GPGGA,184354.00,1304.968,N,08016.248,E,1,08,1.2,10.30,M,-33.9,M,,0000*4E
$GPRMC,184354.00,A,1304.968,N,08016.248,E,20.0,045.0,120926,,,A*6C
$GPGGA,184355.00,1304.971,N,08016.251,E,1,08,1.2,10.45,M,-33.9,M,,0000*4D
$GPRMC,184355.00,A,1304.971,N,08016.251,E,20.0,045.0,120926,,,A*6D
$GPGGA,184356.00,1304.974,N,08016.254,E,1,08,1.2,10.60,M,-33.9,M,,0000*49
$GPRMC,184356.00,A,1304.974,N,08016.254,E,20.0,045.0,120926,,,A*6E
$GPGGA,184357.00,1304.977,N,08016.257,E,1,08,1.2,10.75,M,-33.9,M,,0000*4C
$GPRMC,184357.00,A,1304.977,N,08016.257,E,20.0,045.0,120926,,,A*6F
$GPGGA,184358.00,1304.980,N,08016.260,E,1,08,1.2,10.90,M,-33.9,M,,0000*44
$GPRMC,184358.00,A,1304.980,N,08016.260,E,20.0,045.0,120926,,,A*6C
$GPGGA,184359.00,1304.983,N,08016.263,E,1,08,1.2,11.05,M,-33.9,M,,0000*48
$GPRMC,184359.00,A,1304.983,N,08016.263,E,20.0,045.0,120926,,,A*6D
$GPGGA,184400.00,1304.986,N,08016.266,E,1,08,1.2,11.20,M,-33.9,M,,0000*44
$GPRMC,184400.00,A,1304.986,N,08016.266,E,20.0,045.0,120926,,,A*66
$GPGGA,184401.00,1304.989,N,08016.269,E,1,08,1.2,11.35,M,-33.9,M,,0000*41
$GPRMC,184401.00,A,1304.989,N,08016.269,E,20.0,045.0,120926,,,A*67
$GPGGA,184402.00,1304.992,N,08016.272,E,1,08,1.2,11.50,M,-33.9,M,,0000*41
$GPRMC,184402.00,A,1304.992,N,08016.272,E,20.0,045.0,120926,,,A*64
$GPGGA,184403.00,1304.995,N,08016.275,E,1,08,1.2,11.65,M,-33.9,M,,0000*46
$GPRMC,184403.00,A,1304.995,N,08016.275,E,20.0,045.0,120926,,,A*65
$GPGGA,184404.00,1304.998,N,08016.278,E,1,08,1.2,11.80,M,-33.9,M,,0000*4A
$GPRMC,184404.00,A,1304.998,N,08016.278,E,20.0,045.0,120926,,,A*62
$GPGGA,184405.00,1305.001,N,08016.281,E,1,08,1.2,11.95,M,-33.9,M,,0000*41
$GPRMC,184405.00,A,1305.001,N,08016.281,E,20.0,045.0,120926,,,A*6D
$GPGGA,184406.00,1305.004,N,08016.284,E,1,08,1.2,12.10,M,-33.9,M,,0000*4C
$GPRMC,184406.00,A,1305.004,N,08016.284,E,20.0,045.0,120926,,,A*6E
$GPGGA,184407.00,1305.007,N,08016.287,E,1,08,1.2,12.25,M,-33.9,M,,0000*4B
$GPRMC,184407.00,A,1305.007,N,08016.287,E,20.0,045.0,120926,,,A*6F
$GPGGA,184408.00,1305.010,N,08016.290,E,1,08,1.2,12.40,M,-33.9,M,,0000*47
$GPRMC,184408.00,A,1305.010,N,08016.290,E,20.0,045.0,120926,,,A*60
$GPGGA,184409.00,1305.013,N,08016.293,E,1,08,1.2,12.55,M,-33.9,M,,0000*42
$GPRMC,184409.00,A,1305.013,N,08016.293,E,20.0,045.0,120926,,,A*61
$GPGGA,184410.00,1305.016,N,08016.296,E,1,08,1.2,12.70,M,-33.9,M,,0000*4D
$GPRMC,184410.00,A,1305.016,N,08016.296,E,20.0,045.0,120926,,,A*69
$GPGGA,184411.00,1305.019,N,08016.299,E,1,08,1.2,12.85,M,-33.9,M,,0000*46
$GPRMC,184411.00,A,1305.019,N,08016.299,E,20.0,045.0,120926,,,A*68
$GPGGA,184412.00,1305.022,N,08016.302,E,1,08,1.2,13.00,M,-33.9,M,,0000*42
$GPRMC,184412.00,A,1305.022,N,08016.302,E,20.0,045.0,120926,,,A*60
$GPGGA,184413.00,1305.025,N,08016.305,E,1,08,1.2,13.15,M,-33.9,M,,0000*47
$GPRMC,184413.00,A,1305.025,N,08016.305,E,20.0,045.0,120926,,,A*61
$GPGGA,184414.00,1305.028,N,08016.308,E,1,08,1.2,13.30,M,-33.9,M,,0000*47
$GPRMC,184414.00,A,1305.028,N,08016.308,E,20.0,045.0,120926,,,A*66
$GPGGA,184415.00,1305.031,N,08016.311,E,1,08,1.2,13.45,M,-33.9,M,,0000*44
$GPRMC,184415.00,A,1305.031,N,08016.311,E,20.0,045.0,120926,,,A*67
$GPGGA,184416.00,1305.034,N,08016.314,E,1,08,1.2,13.60,M,-33.9,M,,0000*40
$GPRMC,184416.00,A,1305.034,N,08016.314,E,20.0,045.0,120926,,,A*64
$GPGGA,184417.00,1305.037,N,08016.317,E,1,08,1.2,13.75,M,-33.9,M,,0000*45
$GPRMC,184417.00,A,1305.037,N,08016.317,E,20.0,045.0,120926,,,A*65
$GPGGA,184418.00,1305.040,N,08016.320,E,1,08,1.2,13.90,M,-33.9,M,,0000*45
$GPRMC,184418.00,A,1305.040,N,08016.320,E,20.0,045.0,120926,,,A*6E
$GPGGA,184419.00,1305.043,N,08016.323,E,1,08,1.2,14.05,M,-33.9,M,,0000*4F
$GPRMC,184419.00,A,1305.043,N,08016.323,E,20.0,045.0,120926,,,A*6F
$GPGGA,184420.00,1305.046,N,08016.326,E,1,08,1.2,14.20,M,-33.9,M,,0000*42
$GPRMC,184420.00,A,1305.046,N,08016.326,E,20.0,045.0,120926,,,A*65
$GPGGA,184421.00,1305.049,N,08016.329,E,1,08,1.2,14.35,M,-33.9,M,,0000*47
$GPRMC,184421.00,A,1305.049,N,08016.329,E,20.0,045.0,120926,,,A*64
$GPGGA,184422.00,1305.052,N,08016.332,E,1,08,1.2,14.50,M,-33.9,M,,0000*47
$GPRMC,184422.00,A,1305.052,N,08016.332,E,20.0,045.0,120926,,,A*67
$GPGGA,184423.00,1305.055,N,08016.335,E,1,08,1.2,14.65,M,-33.9,M,,0000*40
$GPRMC,184423.00,A,1305.055,N,08016.335,E,20.0,045.0,120926,,,A*66
$GPGGA,184424.00,1305.058,N,08016.338,E,1,08,1.2,14.80,M,-33.9,M,,0000*4C
$GPRMC,184424.00,A,1305.058,N,08016.338,E,20.0,045.0,120926,,,A*61
$GPGGA,184425.00,1305.061,N,08016.341,E,1,08,1.2,14.95,M,-33.9,M,,0000*4D
$GPRMC,184425.00,A,1305.061,N,08016.341,E,20.0,045.0,120926,,,A*64
$GPGGA,184426.00,1305.064,N,08016.344,E,1,08,1.2,15.10,M,-33.9,M,,0000*42
$GPRMC,184426.00,A,1305.064,N,08016.344,E,20.0,045.0,120926,,,A*67
$GPGGA,184427.00,1305.067,N,08016.347,E,1,08,1.2,15.25,M,-33.9,M,,0000*45
$GPRMC,184427.00,A,1305.067,N,08016.347,E,20.0,045.0,120926,,,A*66
$GPGGA,184428.00,1305.070,N,08016.350,E,1,08,1.2,15.40,M,-33.9,M,,0000*49
$GPRMC,184428.00,A,1305.070,N,08016.350,E,20.0,045.0,120926,,,A*69
$GPGGA,184429.00,1305.073,N,08016.353,E,1,08,1.2,15.55,M,-33.9,M,,0000*4C
$GPRMC,184429.00,A,1305.073,N,08016.353,E,20.0,045.0,120926,,,A*68
$GPGGA,184430.00,1305.076,N,08016.356,E,1,08,1.2,15.70,M,-33.9,M,,0000*43
$GPRMC,184430.00,A,1305.076,N,08016.356,E,20.0,045.0,120926,,,A*60
$GPGGA,184431.00,1305.079,N,08016.359,E,1,08,1.2,15.85,M,-33.9,M,,0000*48
$GPRMC,184431.00,A,1305.079,N,08016.359,E,20.0,045.0,120926,,,A*61
$GPGGA,184432.00,1305.082,N,08016.362,E,1,08,1.2,16.00,M,-33.9,M,,0000*49
$GPRMC,184432.00,A,1305.082,N,08016.362,E,20.0,045.0,120926,,,A*6E
$GPGGA,184433.00,1305.085,N,08016.365,E,1,08,1.2,16.15,M,-33.9,M,,0000*4C
$GPRMC,184433.00,A,1305.085,N,08016.365,E,20.0,045.0,120926,,,A*6F
$GPGGA,184434.00,1305.088,N,08016.368,E,1,08,1.2,16.30,M,-33.9,M,,0000*4C
$GPRMC,184434.00,A,1305.088,N,08016.368,E,20.0,045.0,120926,,,A*68
$GPGGA,184435.00,1305.091,N,08016.371,E,1,08,1.2,16.45,M,-33.9,M,,0000*4F
$GPRMC,184435.00,A,1305.091,N,08016.371,E,20.0,045.0,120926,,,A*69
$GPGGA,184436.00,1305.094,N,08016.374,E,1,08,1.2,16.60,M,-33.9,M,,0000*4B
$GPRMC,184436.00,A,1305.094,N,08016.374,E,20.0,045.0,120926,,,A*6A
$GPGGA,184437.00,1305.097,N,08016.377,E,1,08,1.2,16.75,M,-33.9,M,,0000*4E
$GPRMC,184437.00,A,1305.097,N,08016.377,E,20.0,045.0,120926,,,A*6B
$GPGGA,184438.00,1305.100,N,08016.380,E,1,08,1.2,16.90,M,-33.9,M,,0000*4D
$GPRMC,184438.00,A,1305.100,N,08016.380,E,20.0,045.0,120926,,,A*63
$GPGGA,184439.00,1305.103,N,08016.383,E,1,08,1.2,17.05,M,-33.9,M,,0000*41
$GPRMC,184439.00,A,1305.103,N,08016.383,E,20.0,045.0,120926,,,A*62
$GPGGA,184440.00,1305.106,N,08016.386,E,1,08,1.2,17.20,M,-33.9,M,,0000*48
$GPRMC,184440.00,A,1305.106,N,08016.386,E,20.0,045.0,120926,,,A*6C
$GPGGA,184441.00,1305.109,N,08016.389,E,1,08,1.2,17.35,M,-33.9,M,,0000*4D
$GPRMC,184441.00,A,1305.109,N,08016.389,E,20.0,045.0,120926,,,A*6D
$GPGGA,184442.00,1305.112,N,08016.392,E,1,08,1.2,17.50,M,-33.9,M,,0000*4D
$GPRMC,184442.00,A,1305.112,N,08016.392,E,20.0,045.0,120926,,,A*6E
$GPGGA,184443.00,1305.115,N,08016.395,E,1,08,1.2,17.65,M,-33.9,M,,0000*4A
$GPRMC,184443.00,A,1305.115,N,08016.395,E,20.0,045.0,120926,,,A*6F
$GPGGA,184444.00,1305.118,N,08016.398,E,1,08,1.2,17.80,M,-33.9,M,,0000*46
$GPRMC,184444.00,A,1305.118,N,08016.398,E,20.0,045.0,120926,,,A*68
$GPGGA,184445.00,1305.121,N,08016.401,E,1,08,1.2,17.95,M,-33.9,M,,0000*4E
$GPRMC,184445.00,A,1305.121,N,08016.401,E,20.0,045.0,120926,,,A*64
$GPGGA,184446.00,1305.124,N,08016.404,E,1,08,1.2,18.10,M,-33.9,M,,0000*4F
$GPRMC,184446.00,A,1305.124,N,08016.404,E,20.0,045.0,120926,,,A*67
$GPGGA,184447.00,1305.127,N,08016.407,E,1,08,1.2,18.25,M,-33.9,M,,0000*48
$GPRMC,184447.00,A,1305.127,N,08016.407,E,20.0,045.0,120926,,,A*66
$GPGGA,184448.00,1305.130,N,08016.410,E,1,08,1.2,18.40,M,-33.9,M,,0000*44
$GPRMC,184448.00,A,1305.130,N,08016.410,E,20.0,045.0,120926,,,A*69
$GPGGA,184449.00,1305.133,N,08016.413,E,1,08,1.2,18.55,M,-33.9,M,,0000*41
$GPRMC,184449.00,A,1305.133,N,08016.413,E,20.0,045.0,120926,,,A*68
$GPGGA,184450.00,1305.136,N,08016.416,E,1,08,1.2,18.70,M,-33.9,M,,0000*4E
$GPRMC,184450.00,A,1305.136,N,08016.416,E,20.0,045.0,120926,,,A*60
$GPGGA,184451.00,1305.139,N,08016.419,E,1,08,1.2,18.85,M,-33.9,M,,0000*45
$GPRMC,184451.00,A,1305.139,N,08016.419,E,20.0,045.0,120926,,,A*61
$GPGGA,184452.00,1305.142,N,08016.422,E,1,08,1.2,19.00,M,-33.9,M,,0000*4E
$GPRMC,184452.00,A,1305.142,N,08016.422,E,20.0,045.0,120926,,,A*66
$GPGGA,184453.00,1305.145,N,08016.425,E,1,08,1.2,19.15,M,-33.9,M,,0000*4B
$GPRMC,184453.00,A,1305.145,N,08016.425,E,20.0,045.0,120926,,,A*67
$GPGGA,184454.00,1305.148,N,08016.428,E,1,08,1.2,19.30,M,-33.9,M,,0000*4B
$GPRMC,184454.00,A,1305.148,N,08016.428,E,20.0,045.0,120926,,,A*60
$GPGGA,184455.00,1305.151,N,08016.431,E,1,08,1.2,19.45,M,-33.9,M,,0000*48
$GPRMC,184455.00,A,1305.151,N,08016.431,E,20.0,045.0,120926,,,A*61
$GPGGA,184456.00,1305.154,N,08016.434,E,1,08,1.2,19.60,M,-33.9,M,,0000*4C
$GPRMC,184456.00,A,1305.154,N,08016.434,E,20.0,045.0,120926,,,A*62
$GPGGA,184457.00,1305.157,N,08016.437,E,1,08,1.2,19.75,M,-33.9,M,,0000*49
$GPRMC,184457.00,A,1305.157,N,08016.437,E,20.0,045.0,120926,,,A*63
$GPGGA,184458.00,1305.160,N,08016.440,E,1,08,1.2,19.90,M,-33.9,M,,0000*49
$GPRMC,184458.00,A,1305.160,N,08016.440,E,20.0,045.0,120926,,,A*68
$GPGGA,184459.00,1305.163,N,08016.443,E,1,08,1.2,20.05,M,-33.9,M,,0000*4E
$GPRMC,184459.00,A,1305.163,N,08016.443,E,20.0,045.0,120926,,,A*69
$GPGGA,184500.00,1305.166,N,08016.446,E,1,08,1.2,20.20,M,-33.9,M,,0000*44
$GPRMC,184500.00,A,1305.166,N,08016.446,E,20.0,045.0,120926,,,A*64
$GPGGA,184501.00,1305.169,N,08016.449,E,1,08,1.2,20.35,M,-33.9,M,,0000*41
$GPRMC,184501.00,A,1305.169,N,08016.449,E,20.0,045.0,120926,,,A*65
$GPGGA,184502.00,1305.172,N,08016.452,E,1,08,1.2,20.50,M,-33.9,M,,0000*41
$GPRMC,184502.00,A,1305.172,N,08016.452,E,20.0,045.0,120926,,,A*66
$GPGGA,184503.00,1305.175,N,08016.455,E,1,08,1.2,20.65,M,-33.9,M,,0000*46
$GPRMC,184503.00,A,1305.175,N,08016.455,E,20.0,045.0,120926,,,A*67
$GPGGA,184504.00,1305.178,N,08016.458,E,1,08,1.2,20.80,M,-33.9,M,,0000*4A
$GPRMC,184504.00,A,1305.178,N,08016.458,E,20.0,045.0,120926,,,A*60
$GPGGA,184505.00,1305.181,N,08016.461,E,1,08,1.2,20.95,M,-33.9,M,,0000*43
$GPRMC,184505.00,A,1305.181,N,08016.461,E,20.0,045.0,120926,,,A*6D
$GPGGA,184506.00,1305.184,N,08016.464,E,1,08,1.2,21.10,M,-33.9,M,,0000*4C
$GPRMC,184506.00,A,1305.184,N,08016.464,E,20.0,045.0,120926,,,A*6E
$GPGGA,184507.00,1305.187,N,08016.467,E,1,08,1.2,21.25,M,-33.9,M,,0000*4B
$GPRMC,184507.00,A,1305.187,N,08016.467,E,20.0,045.0,120926,,,A*6F
$GPGGA,184508.00,1305.190,N,08016.470,E,1,08,1.2,21.40,M,-33.9,M,,0000*47
$GPRMC,184508.00,A,1305.190,N,08016.470,E,20.0,045.0,120926,,,A*60
$GPGGA,184509.00,1305.193,N,08016.473,E,1,08,1.2,21.55,M,-33.9,M,,0000*42
$GPRMC,184509.00,A,1305.193,N,08016.473,E,20.0,045.0,120926,,,A*61
$GPGGA,184510.00,1305.196,N,08016.476,E,1,08,1.2,21.70,M,-33.9,M,,0000*4D
$GPRMC,184510.00,A,1305.196,N,08016.476,E,20.0,045.0,120926,,,A*69
$GPGGA,184511.00,1305.199,N,08016.479,E,1,08,1.2,21.85,M,-33.9,M,,0000*46
$GPRMC,184511.00,A,1305.199,N,08016.479,E,20.0,045.0,120926,,,A*68
$GPGGA,184512.00,1305.202,N,08016.482,E,1,08,1.2,22.00,M,-33.9,M,,0000*4E
$GPRMC,184512.00,A,1305.202,N,08016.482,E,20.0,045.0,120926,,,A*6E
$GPGGA,184513.00,1305.205,N,08016.485,E,1,08,1.2,22.15,M,-33.9,M,,0000*4B
$GPRMC,184513.00,A,1305.205,N,08016.485,E,20.0,045.0,120926,,,A*6F
$GPGGA,184514.00,1305.208,N,08016.488,E,1,08,1.2,22.30,M,-33.9,M,,0000*4B
$GPRMC,184514.00,A,1305.208,N,08016.488,E,20.0,045.0,120926,,,A*68
$GPGGA,184515.00,1305.211,N,08016.491,E,1,08,1.2,22.45,M,-33.9,M,,0000*48
$GPRMC,184515.00,A,1305.211,N,08016.491,E,20.0,045.0,120926,,,A*69
$GPGGA,184516.00,1305.214,N,08016.494,E,1,08,1.2,22.60,M,-33.9,M,,0000*4C
$GPRMC,184516.00,A,1305.214,N,08016.494,E,20.0,045.0,120926,,,A*6A
$GPGGA,184517.00,1305.217,N,08016.497,E,1,08,1.2,22.75,M,-33.9,M,,0000*49
$GPRMC,184517.00,A,1305.217,N,08016.497,E,20.0,045.0,120926,,,A*6B
$GPGGA,184518.00,1305.220,N,08016.500,E,1,08,1.2,22.90,M,-33.9,M,,0000*46
$GPRMC,184518.00,A,1305.220,N,08016.500,E,20.0,045.0,120926,,,A*6F
$GPGGA,184519.00,1305.223,N,08016.503,E,1,08,1.2,23.05,M,-33.9,M,,0000*4A
$GPRMC,184519.00,A,1305.223,N,08016.503,E,20.0,045.0,120926,,,A*6E
$GPGGA,184520.00,1305.226,N,08016.506,E,1,08,1.2,23.20,M,-33.9,M,,0000*47
$GPRMC,184520.00,A,1305.226,N,08016.506,E,20.0,045.0,120926,,,A*64
$GPGGA,184521.00,1305.229,N,08016.509,E,1,08,1.2,23.35,M,-33.9,M,,0000*42
$GPRMC,184521.00,A,1305.229,N,08016.509,E,20.0,045.0,120926,,,A*65
$GPGGA,184522.00,1305.232,N,08016.512,E,1,08,1.2,23.50,M,-33.9,M,,0000*42
$GPRMC,184522.00,A,1305.232,N,08016.512,E,20.0,045.0,120926,,,A*66
$GPGGA,184523.00,1305.235,N,08016.515,E,1,08,1.2,23.65,M,-33.9,M,,0000*45
$GPRMC,184523.00,A,1305.235,N,08016.515,E,20.0,045.0,120926,,,A*67
$GPGGA,184524.00,1305.238,N,08016.518,E,1,08,1.2,23.80,M,-33.9,M,,0000*49
$GPRMC,184524.00,A,1305.238,N,08016.518,E,20.0,045.0,120926,,,A*60
$GPGGA,184525.00,1305.241,N,08016.521,E,1,08,1.2,23.95,M,-33.9,M,,0000*48
$GPRMC,184525.00,A,1305.241,N,08016.521,E,20.0,045.0,120926,,,A*65
$GPGGA,184526.00,1305.244,N,08016.524,E,1,08,1.2,24.10,M,-33.9,M,,0000*41
$GPRMC,184526.00,A,1305.244,N,08016.524,E,20.0,045.0,120926,,,A*66
$GPGGA,184527.00,1305.247,N,08016.527,E,1,08,1.2,24.25,M,-33.9,M,,0000*46
$GPRMC,184527.00,A,1305.247,N,08016.527,E,20.0,045.0,120926,,,A*67
$GPGGA,184528.00,1305.250,N,08016.530,E,1,08,1.2,24.40,M,-33.9,M,,0000*4A
$GPRMC,184528.00,A,1305.250,N,08016.530,E,20.0,045.0,120926,,,A*68
$GPGGA,184529.00,1305.253,N,08016.533,E,1,08,1.2,24.55,M,-33.9,M,,0000*4F
$GPRMC,184529.00,A,1305.253,N,08016.533,E,20.0,045.0,120926,,,A*69
$GPGGA,184530.00,1305.256,N,08016.536,E,1,08,1.2,24.70,M,-33.9,M,,0000*40
$GPRMC,184530.00,A,1305.256,N,08016.536,E,20.0,045.0,120926,,,A*61
$GPGGA,184531.00,1305.259,N,08016.539,E,1,08,1.2,24.85,M,-33.9,M,,0000*4B
$GPRMC,184531.00,A,1305.259,N,08016.539,E,20.0,045.0,120926,,,A*60
$GPGGA,184532.00,1305.262,N,08016.542,E,1,08,1.2,25.00,M,-33.9,M,,0000*40
$GPRMC,184532.00,A,1305.262,N,08016.542,E,20.0,045.0,120926,,,A*67
$GPGGA,184533.00,1305.265,N,08016.545,E,1,08,1.2,25.15,M,-33.9,M,,0000*45
$GPRMC,184533.00,A,1305.265,N,08016.545,E,20.0,045.0,120926,,,A*66
$GPGGA,184534.00,1305.268,N,08016.548,E,1,08,1.2,25.30,M,-33.9,M,,0000*45
$GPRMC,184534.00,A,1305.268,N,08016.548,E,20.0,045.0,120926,,,A*61
$GPGGA,184535.00,1305.271,N,08016.551,E,1,08,1.2,25.45,M,-33.9,M,,0000*46
$GPRMC,184535.00,A,1305.271,N,08016.551,E,20.0,045.0,120926,,,A*60
$GPGGA,184536.00,1305.274,N,08016.554,E,1,08,1.2,25.60,M,-33.9,M,,0000*42
$GPRMC,184536.00,A,1305.274,N,08016.554,E,20.0,045.0,120926,,,A*63
$GPGGA,184537.00,1305.277,N,08016.557,E,1,08,1.2,25.75,M,-33.9,M,,0000*47
$GPRMC,184537.00,A,1305.277,N,08016.557,E,20.0,045.0,120926,,,A*62
$GPGGA,184538.00,1305.280,N,08016.560,E,1,08,1.2,25.90,M,-33.9,M,,0000*4F
$GPRMC,184538.00,A,1305.280,N,08016.560,E,20.0,045.0,120926,,,A*61
$GPGGA,184539.00,1305.283,N,08016.563,E,1,08,1.2,26.05,M,-33.9,M,,0000*41
$GPRMC,184539.00,A,1305.283,N,08016.563,E,20.0,045.0,120926,,,A*60
$GPGGA,184540.00,1305.286,N,08016.566,E,1,08,1.2,26.20,M,-33.9,M,,0000*48
$GPRMC,184540.00,A,1305.286,N,08016.566,E,20.0,045.0,120926,,,A*6E
$GPGGA,184541.00,1305.289,N,08016.569,E,1,08,1.2,26.35,M,-33.9,M,,0000*4D
$GPRMC,184541.00,A,1305.289,N,08016.569,E,20.0,045.0,120926,,,A*6F
$GPGGA,184542.00,1305.292,N,08016.572,E,1,08,1.2,26.50,M,-33.9,M,,0000*4D
$GPRMC,184542.00,A,1305.292,N,08016.572,E,20.0,045.0,120926,,,A*6C
$GPGGA,184543.00,1305.295,N,08016.575,E,1,08,1.2,26.65,M,-33.9,M,,0000*4A
$GPRMC,184543.00,A,1305.295,N,08016.575,E,20.0,045.0,120926,,,A*6D
$GPGGA,184544.00,1305.298,N,08016.578,E,1,08,1.2,26.80,M,-33.9,M,,0000*46
$GPRMC,184544.00,A,1305.298,N,08016.578,E,20.0,045.0,120926,,,A*6A
$GPGGA,184545.00,1305.301,N,08016.581,E,1,08,1.2,26.95,M,-33.9,M,,0000*44
$GPRMC,184545.00,A,1305.301,N,08016.581,E,20.0,045.0,120926,,,A*6C
$GPGGA,184546.00,1305.304,N,08016.584,E,1,08,1.2,27.10,M,-33.9,M,,0000*4B
$GPRMC,184546.00,A,1305.304,N,08016.584,E,20.0,045.0,120926,,,A*6F
$GPGGA,184547.00,1305.307,N,08016.587,E,1,08,1.2,27.25,M,-33.9,M,,0000*4C
$GPRMC,184547.00,A,1305.307,N,08016.587,E,20.0,045.0,120926,,,A*6E
$GPGGA,184548.00,1305.310,N,08016.590,E,1,08,1.2,27.40,M,-33.9,M,,0000*40
$GPRMC,184548.00,A,1305.310,N,08016.590,E,20.0,045.0,120926,,,A*61
$GPGGA,184549.00,1305.313,N,08016.593,E,1,08,1.2,27.55,M,-33.9,M,,0000*45
$GPRMC,184549.00,A,1305.313,N,08016.593,E,20.0,045.0,120926,,,A*60
$GPGGA,184550.00,1305.316,N,08016.596,E,1,08,1.2,27.70,M,-33.9,M,,0000*4A
$GPRMC,184550.00,A,1305.316,N,08016.596,E,20.0,045.0,120926,,,A*68
$GPGGA,184551.00,1305.319,N,08016.599,E,1,08,1.2,27.85,M,-33.9,M,,0000*41
$GPRMC,184551.00,A,1305.319,N,08016.599,E,20.0,045.0,120926,,,A*69
$GPGGA,184552.00,1305.322,N,08016.602,E,1,08,1.2,28.00,M,-33.9,M,,0000*49
$GPRMC,184552.00,A,1305.322,N,08016.602,E,20.0,045.0,120926,,,A*63
