$GPGGA,060000.00,1343.195,N,08013.824,E,1,09,1.1,77.50,M,-28.0,M,,0000*4D
$GPRMC,060000.00,A,1343.195,N,08013.824,E,87.5,090.0,130926,,,A*68
$GPGGA,060001.00,1343.196,N,08013.825,E,1,09,1.1,190.00,M,-28.0,M,,0000*73
$GPRMC,060001.00,A,1343.196,N,08013.825,E,174.9,090.0,130926,,,A*5A
$GPGGA,060002.00,1343.198,N,08013.828,E,1,09,1.1,347.50,M,-28.0,M,,0000*7E
$GPRMC,060002.00,A,1343.198,N,08013.828,E,262.4,090.0,130926,,,A*53
$GPGGA,060003.00,1343.199,N,08013.833,E,1,09,1.1,550.00,M,-28.0,M,,0000*71
$GPRMC,060003.00,A,1343.199,N,08013.833,E,349.9,090.0,130926,,,A*5C
$GPGGA,060004.00,1343.200,N,08013.839,E,1,09,1.1,797.50,M,-28.0,M,,0000*73
$GPRMC,060004.00,A,1343.200,N,08013.839,E,437.4,090.0,130926,,,A*51
$GPGGA,060005.00,1343.201,N,08013.846,E,1,09,1.1,1090.00,M,-28.0,M,,0000*4F
$GPRMC,060005.00,A,1343.201,N,08013.846,E,524.8,090.0,130926,,,A*56
$GPGGA,060006.00,1343.202,N,08013.855,E,1,09,1.1,1427.50,M,-28.0,M,,0000*40
$GPRMC,060006.00,A,1343.202,N,08013.855,E,612.3,090.0,130926,,,A*59
$GPGGA,060007.00,1343.204,N,08013.866,E,1,09,1.1,1810.00,M,-28.0,M,,0000*4A
$GPRMC,060007.00,A,1343.204,N,08013.866,E,699.8,090.0,130926,,,A*56
$GPGGA,060008.00,1343.205,N,08013.878,E,1,09,1.1,2237.50,M,-28.0,M,,0000*42
$GPRMC,060008.00,A,1343.205,N,08013.878,E,787.3,090.0,130926,,,A*52
$GPGGA,060009.00,1343.206,N,08013.892,E,1,09,1.1,2710.00,M,-28.0,M,,0000*41
$GPRMC,060009.00,A,1343.206,N,08013.892,E,874.7,090.0,130926,,,A*53
$GPGGA,060010.00,1343.207,N,08013.906,E,1,09,1.1,3227.50,M,-28.0,M,,0000*41
$GPRMC,060010.00,A,1343.207,N,08013.906,E,962.2,090.0,130926,,,A*55
$GPGGA,060011.00,1343.208,N,08013.923,E,1,09,1.1,3790.00,M,-28.0,M,,0000*44
$GPRMC,060011.00,A,1343.208,N,08013.923,E,1049.7,090.0,130926,,,A*68
$GPGGA,060012.00,1343.210,N,08013.941,E,1,09,1.1,4397.50,M,-28.0,M,,0000*4B
$GPRMC,060012.00,A,1343.210,N,08013.941,E,1137.1,090.0,130926,,,A*68
$GPGGA,060013.00,1343.211,N,08013.961,E,1,09,1.1,5050.00,M,-28.0,M,,0000*45
$GPRMC,060013.00,A,1343.211,N,08013.961,E,1224.6,090.0,130926,,,A*6C
$GPGGA,060014.00,1343.212,N,08013.981,E,1,09,1.1,5747.50,M,-28.0,M,,0000*4B
$GPRMC,060014.00,A,1343.212,N,08013.981,E,1312.1,090.0,130926,,,A*65
$GPGGA,060015.00,1343.213,N,08014.004,E,1,09,1.1,6490.00,M,-28.0,M,,0000*47
$GPRMC,060015.00,A,1343.213,N,08014.004,E,1399.6,090.0,130926,,,A*62
$GPGGA,060016.00,1343.214,N,08014.028,E,1,09,1.1,7277.50,M,-28.0,M,,0000*46
$GPRMC,060016.00,A,1343.214,N,08014.028,E,1487.0,090.0,130926,,,A*66
$GPGGA,060017.00,1343.216,N,08014.054,E,1,09,1.1,8110.00,M,-28.0,M,,0000*46
$GPRMC,060017.00,A,1343.216,N,08014.054,E,1574.5,090.0,130926,,,A*66
$GPGGA,060018.00,1343.217,N,08014.081,E,1,09,1.1,8987.50,M,-28.0,M,,0000*43
$GPRMC,060018.00,A,1343.217,N,08014.081,E,1662.0,090.0,130926,,,A*61
$GPGGA,060019.00,1343.218,N,08014.109,E,1,09,1.1,9910.00,M,-28.0,M,,0000*46
$GPRMC,060019.00,A,1343.218,N,08014.109,E,1749.5,090.0,130926,,,A*63
$GPGGA,060020.00,1343.219,N,08014.139,E,1,09,1.1,10877.50,M,-28.0,M,,0000*73
$GPRMC,060020.00,A,1343.219,N,08014.139,E,1836.9,090.0,130926,,,A*60
$GPGGA,060021.00,1343.220,N,08014.171,E,1,09,1.1,11890.00,M,-28.0,M,,0000*79
$GPRMC,060021.00,A,1343.220,N,08014.171,E,1924.4,090.0,130926,,,A*68
$GPGGA,060022.00,1343.222,N,08014.204,E,1,09,1.1,12947.50,M,-28.0,M,,0000*74
$GPRMC,060022.00,A,1343.222,N,08014.204,E,2011.9,090.0,130926,,,A*69
$GPGGA,060023.00,1343.223,N,08014.238,E,1,09,1.1,14050.00,M,-28.0,M,,0000*77
$GPRMC,060023.00,A,1343.223,N,08014.238,E,2099.3,090.0,130926,,,A*6C
$GPGGA,060024.00,1343.224,N,08014.274,E,1,09,1.1,15197.50,M,-28.0,M,,0000*71
$GPRMC,060024.00,A,1343.224,N,08014.274,E,2186.8,090.0,130926,,,A*60
$GPGGA,060025.00,1343.225,N,08014.312,E,1,09,1.1,16390.00,M,-28.0,M,,0000*73
$GPRMC,060025.00,A,1343.225,N,08014.312,E,2274.3,090.0,130926,,,A*64
$GPGGA,060026.00,1343.226,N,08014.351,E,1,09,1.1,17627.50,M,-28.0,M,,0000*79
$GPRMC,060026.00,A,1343.226,N,08014.351,E,2361.8,090.0,130926,,,A*6D
$GPGGA,060027.00,1343.228,N,08014.391,E,1,09,1.1,18910.00,M,-28.0,M,,0000*7B
$GPRMC,060027.00,A,1343.228,N,08014.391,E,2449.2,090.0,130926,,,A*69
$GPGGA,060028.00,1343.229,N,08014.433,E,1,09,1.1,20237.50,M,-28.0,M,,0000*7A
$GPRMC,060028.00,A,1343.229,N,08014.433,E,2536.7,090.0,130926,,,A*64
$GPGGA,060029.00,1343.230,N,08014.477,E,1,09,1.1,21610.00,M,-28.0,M,,0000*76
$GPRMC,060029.00,A,1343.230,N,08014.477,E,2624.2,090.0,130926,,,A*68
$GPGGA,060030.00,1343.231,N,08014.521,E,1,09,1.1,23027.50,M,-28.0,M,,0000*78
$GPRMC,060030.00,A,1343.231,N,08014.521,E,2711.7,090.0,130926,,,A*61
$GPGGA,060031.00,1343.232,N,08014.568,E,1,09,1.1,24490.00,M,-28.0,M,,0000*7D
$GPRMC,060031.00,A,1343.232,N,08014.568,E,2799.1,090.0,130926,,,A*68
$GPGGA,060032.00,1343.234,N,08014.616,E,1,09,1.1,25997.50,M,-28.0,M,,0000*7C
$GPRMC,060032.00,A,1343.234,N,08014.616,E,2886.6,090.0,130926,,,A*61
$GPGGA,060033.00,1343.235,N,08014.666,E,1,09,1.1,27550.00,M,-28.0,M,,0000*7B
$GPRMC,060033.00,A,1343.235,N,08014.666,E,2974.1,090.0,130926,,,A*6D
$GPGGA,060034.00,1343.236,N,08014.717,E,1,09,1.1,29147.50,M,-28.0,M,,0000*71
$GPRMC,060034.00,A,1343.236,N,08014.717,E,3061.5,090.0,130926,,,A*66
$GPGGA,060035.00,1343.237,N,08014.769,E,1,09,1.1,30790.00,M,-28.0,M,,0000*79
$GPRMC,060035.00,A,1343.237,N,08014.769,E,3149.0,090.0,130926,,,A*61
$GPGGA,060036.00,1343.238,N,08014.823,E,1,09,1.1,32477.50,M,-28.0,M,,0000*79
$GPRMC,060036.00,A,1343.238,N,08014.823,E,3236.5,090.0,130926,,,A*62
$GPGGA,060037.00,1343.240,N,08014.878,E,1,09,1.1,34210.00,M,-28.0,M,,0000*7D
$GPRMC,060037.00,A,1343.240,N,08014.878,E,3324.0,090.0,130926,,,A*65
$GPGGA,060038.00,1343.241,N,08014.935,E,1,09,1.1,35987.50,M,-28.0,M,,0000*7A
$GPRMC,060038.00,A,1343.241,N,08014.935,E,3411.4,090.0,130926,,,A*66
$GPGGA,060039.00,1343.242,N,08014.994,E,1,09,1.1,37810.00,M,-28.0,M,,0000*7B
$GPRMC,060039.00,A,1343.242,N,08014.994,E,3498.9,090.0,130926,,,A*63
$GPGGA,060040.00,1343.243,N,08015.054,E,1,09,1.1,39677.50,M,-28.0,M,,0000*74
$GPRMC,060040.00,A,1343.243,N,08015.054,E,3586.4,090.0,130926,,,A*6B
$GPGGA,060041.00,1343.244,N,08015.115,E,1,09,1.1,41590.00,M,-28.0,M,,0000*76
$GPRMC,060041.00,A,1343.244,N,08015.115,E,3673.9,090.0,130926,,,A*6D
$GPGGA,060042.00,1343.246,N,08015.179,E,1,09,1.1,43547.50,M,-28.0,M,,0000*70
$GPRMC,060042.00,A,1343.246,N,08015.179,E,3761.3,090.0,130926,,,A*6E
$GPGGA,060043.00,1343.247,N,08015.243,E,1,09,1.1,45550.00,M,-28.0,M,,0000*7F
$GPRMC,060043.00,A,1343.247,N,08015.243,E,3848.8,090.0,130926,,,A*6B
$GPGGA,060044.00,1343.248,N,08015.309,E,1,09,1.1,47597.50,M,-28.0,M,,0000*74
$GPRMC,060044.00,A,1343.248,N,08015.309,E,3936.3,090.0,130926,,,A*6F
$GPGGA,060045.00,1343.249,N,08015.377,E,1,09,1.1,49690.00,M,-28.0,M,,0000*72
$GPRMC,060045.00,A,1343.249,N,08015.377,E,4023.7,090.0,130926,,,A*68
$GPGGA,060046.00,1343.250,N,08015.445,E,1,09,1.1,51827.50,M,-28.0,M,,0000*71
$GPRMC,060046.00,A,1343.250,N,08015.445,E,4111.2,090.0,130926,,,A*60
$GPGGA,060047.00,1343.252,N,08015.516,E,1,09,1.1,54010.00,M,-28.0,M,,0000*79
$GPRMC,060047.00,A,1343.252,N,08015.516,E,4198.7,090.0,130926,,,A*60
$GPGGA,060048.00,1343.253,N,08015.588,E,1,09,1.1,56237.50,M,-28.0,M,,0000*70
$GPRMC,060048.00,A,1343.253,N,08015.588,E,4286.2,090.0,130926,,,A*60
$GPGGA,060049.00,1343.254,N,08015.662,E,1,09,1.1,58510.00,M,-28.0,M,,0000*78
$GPRMC,060049.00,A,1343.254,N,08015.662,E,4373.6,090.0,130926,,,A*6E
$GPGGA,060050.00,1343.255,N,08015.737,E,0,00,99.9,60827.50,M,-28.0,M,,0000*46
$GPRMC,060050.00,V,1343.255,N,08015.737,E,4461.1,090.0,130926,,,A*72
$GPGGA,060051.00,1343.256,N,08015.813,E,0,00,99.9,63190.00,M,-28.0,M,,0000*4E
$GPRMC,060051.00,V,1343.256,N,08015.813,E,4548.6,090.0,130926,,,A*74
$GPGGA,060052.00,1343.258,N,08015.891,E,0,00,99.9,65597.50,M,-28.0,M,,0000*49
$GPRMC,060052.00,V,1343.258,N,08015.891,E,4636.1,090.0,130926,,,A*7E
$GPGGA,060053.00,1343.259,N,08015.971,E,0,00,99.9,68050.00,M,-28.0,M,,0000*40
$GPRMC,060053.00,V,1343.259,N,08015.971,E,4723.5,090.0,130926,,,A*70
$GPGGA,060054.00,1343.260,N,08016.052,E,0,00,99.9,70547.50,M,-28.0,M,,0000*49
$GPRMC,060054.00,V,1343.260,N,08016.052,E,4811.0,090.0,130926,,,A*7D
$GPGGA,060055.00,1343.261,N,08016.134,E,0,00,99.9,73090.00,M,-28.0,M,,0000*41
$GPRMC,060055.00,V,1343.261,N,08016.134,E,4898.5,090.0,130926,,,A*78
$GPGGA,060056.00,1343.262,N,08016.218,E,1,09,1.1,75677.50,M,-28.0,M,,0000*71
$GPRMC,060056.00,A,1343.262,N,08016.218,E,4985.9,090.0,130926,,,A*63
$GPGGA,060057.00,1343.264,N,08016.304,E,1,09,1.1,78310.00,M,-28.0,M,,0000*76
$GPRMC,060057.00,A,1343.264,N,08016.304,E,5073.4,090.0,130926,,,A*64
$GPGGA,060058.00,1343.265,N,08016.391,E,1,09,1.1,80987.50,M,-28.0,M,,0000*72
$GPRMC,060058.00,A,1343.265,N,08016.391,E,5160.9,090.0,130926,,,A*68
$GPGGA,060059.00,1343.266,N,08016.479,E,1,09,1.1,83710.00,M,-28.0,M,,0000*77
$GPRMC,060059.00,A,1343.266,N,08016.479,E,5248.4,090.0,130926,,,A*6F
$GPGGA,060100.00,1343.267,N,08016.569,E,1,09,1.1,86477.50,M,-28.0,M,,0000*79
$GPRMC,060100.00,A,1343.267,N,08016.569,E,5335.8,090.0,130926,,,A*64
$GPGGA,060101.00,1343.268,N,08016.661,E,1,09,1.1,89290.00,M,-28.0,M,,0000*79
$GPRMC,060101.00,A,1343.268,N,08016.661,E,5423.3,090.0,130926,,,A*6A
$GPGGA,060102.00,1343.270,N,08016.753,E,1,09,1.1,92147.50,M,-28.0,M,,0000*75
$GPRMC,060102.00,A,1343.270,N,08016.753,E,5510.8,090.0,130926,,,A*6A
$GPGGA,060103.00,1343.271,N,08016.848,E,1,09,1.1,95050.00,M,-28.0,M,,0000*75
$GPRMC,060103.00,A,1343.271,N,08016.848,E,5598.3,090.0,130926,,,A*64
$GPGGA,060104.00,1343.272,N,08016.944,E,1,09,1.1,97997.50,M,-28.0,M,,0000*79
$GPRMC,060104.00,A,1343.272,N,08016.944,E,5685.7,090.0,130926,,,A*66
$GPGGA,060105.00,1343.273,N,08017.041,E,1,09,1.1,100990.00,M,-28.0,M,,0000*49
$GPRMC,060105.00,A,1343.273,N,08017.041,E,5773.2,090.0,130926,,,A*66
$GPGGA,060106.00,1343.274,N,08017.140,E,1,09,1.1,104027.50,M,-28.0,M,,0000*49
$GPRMC,060106.00,A,1343.274,N,08017.140,E,5860.7,090.0,130926,,,A*6A
$GPGGA,060107.00,1343.276,N,08017.241,E,1,09,1.1,107110.00,M,-28.0,M,,0000*4B
$GPRMC,060107.00,A,1343.276,N,08017.241,E,5948.2,090.0,130926,,,A*65
$GPGGA,060108.00,1343.277,N,08017.343,E,1,09,1.1,110237.50,M,-28.0,M,,0000*43
$GPRMC,060108.00,A,1343.277,N,08017.343,E,6035.6,090.0,130926,,,A*6C
$GPGGA,060109.00,1343.278,N,08017.446,E,1,09,1.1,113410.00,M,-28.0,M,,0000*4A
$GPRMC,060109.00,A,1343.278,N,08017.446,E,6123.1,090.0,130926,,,A*61
$GPGGA,060110.00,1343.279,N,08017.551,E,1,09,1.1,116627.50,M,-28.0,M,,0000*42
$GPRMC,060110.00,A,1343.279,N,08017.551,E,6210.6,090.0,130926,,,A*6B
$GPGGA,060111.00,1343.280,N,08017.658,E,1,09,1.1,119890.00,M,-28.0,M,,0000*47
$GPRMC,060111.00,A,1343.280,N,08017.658,E,6298.0,090.0,130926,,,A*60
$GPGGA,060112.00,1343.282,N,08017.766,E,1,09,1.1,123197.50,M,-28.0,M,,0000*48
$GPRMC,060112.00,A,1343.282,N,08017.766,E,6385.5,090.0,130926,,,A*65
$GPGGA,060113.00,1343.283,N,08017.875,E,1,09,1.1,126550.00,M,-28.0,M,,0000*4A
$GPRMC,060113.00,A,1343.283,N,08017.875,E,6473.0,090.0,130926,,,A*63
$GPGGA,060114.00,1343.284,N,08017.986,E,1,09,1.1,129947.50,M,-28.0,M,,0000*47
$GPRMC,060114.00,A,1343.284,N,08017.986,E,6560.5,090.0,130926,,,A*68
$GPGGA,060115.00,1343.285,N,08018.099,E,1,09,1.1,133390.00,M,-28.0,M,,0000*41
$GPRMC,060115.00,A,1343.285,N,08018.099,E,6647.9,090.0,130926,,,A*6A
$GPGGA,060116.00,1343.286,N,08018.213,E,1,09,1.1,136877.50,M,-28.0,M,,0000*43
$GPRMC,060116.00,A,1343.286,N,08018.213,E,6735.4,090.0,130926,,,A*63
$GPGGA,060117.00,1343.288,N,08018.329,E,1,09,1.1,140410.00,M,-28.0,M,,0000*4D
$GPRMC,060117.00,A,1343.288,N,08018.329,E,6822.9,090.0,130926,,,A*60
$GPGGA,060118.00,1343.289,N,08018.445,E,1,09,1.1,143987.50,M,-28.0,M,,0000*4B
$GPRMC,060118.00,A,1343.289,N,08018.445,E,6910.4,090.0,130926,,,A*6E
$GPGGA,060119.00,1343.290,N,08018.564,E,1,09,1.1,147610.00,M,-28.0,M,,0000*40
$GPRMC,060119.00,A,1343.290,N,08018.564,E,6997.8,090.0,130926,,,A*66
$GPGGA,060120.00,1343.291,N,08018.684,E,1,09,1.1,151277.50,M,-28.0,M,,0000*41
$GPRMC,060120.00,A,1343.291,N,08018.684,E,7085.3,090.0,130926,,,A*60
$GPGGA,060121.00,1343.292,N,08018.805,E,1,09,1.1,154990.00,M,-28.0,M,,0000*46
$GPRMC,060121.00,A,1343.292,N,08018.805,E,7172.8,090.0,130926,,,A*67
$GPGGA,060122.00,1343.294,N,08018.928,E,1,09,1.1,158747.50,M,-28.0,M,,0000*40
$GPRMC,060122.00,A,1343.294,N,08018.928,E,7260.2,090.0,130926,,,A*66
$GPGGA,060123.00,1343.295,N,08019.053,E,1,09,1.1,162550.00,M,-28.0,M,,0000*4C
$GPRMC,060123.00,A,1343.295,N,08019.053,E,7347.7,090.0,130926,,,A*63
$GPGGA,060124.00,1343.296,N,08019.179,E,1,09,1.1,166397.50,M,-28.0,M,,0000*4D
$GPRMC,060124.00,A,1343.296,N,08019.179,E,7435.2,090.0,130926,,,A*69
$GPGGA,060125.00,1343.297,N,08019.307,E,1,09,1.1,170290.00,M,-28.0,M,,0000*42
$GPRMC,060125.00,A,1343.297,N,08019.307,E,7522.7,090.0,130926,,,A*60
$GPGGA,060126.00,1343.298,N,08019.436,E,1,09,1.1,174227.50,M,-28.0,M,,0000*46
$GPRMC,060126.00,A,1343.298,N,08019.436,E,7610.1,090.0,130926,,,A*6D
$GPGGA,060127.00,1343.300,N,08019.566,E,1,09,1.1,178210.00,M,-28.0,M,,0000*4E
$GPRMC,060127.00,A,1343.300,N,08019.566,E,7697.6,090.0,130926,,,A*60
$GPGGA,060128.00,1343.301,N,08019.698,E,1,09,1.1,182237.50,M,-28.0,M,,0000*47
$GPRMC,060128.00,A,1343.301,N,08019.698,E,7785.1,090.0,130926,,,A*69
$GPGGA,060129.00,1343.302,N,08019.831,E,1,09,1.1,186310.00,M,-28.0,M,,0000*4D
$GPRMC,060129.00,A,1343.302,N,08019.831,E,7872.6,090.0,130926,,,A*66
$GPGGA,060130.00,1343.303,N,08019.966,E,1,09,1.1,190427.50,M,-28.0,M,,0000*46
$GPRMC,060130.00,A,1343.303,N,08019.966,E,7960.0,090.0,130926,,,A*68
$GPGGA,060131.00,1343.304,N,08020.103,E,1,09,1.1,194590.00,M,-28.0,M,,0000*4D
$GPRMC,060131.00,A,1343.304,N,08020.103,E,8047.5,090.0,130926,,,A*69
$GPGGA,060132.00,1343.306,N,08020.241,E,1,09,1.1,198797.50,M,-28.0,M,,0000*45
$GPRMC,060132.00,A,1343.306,N,08020.241,E,8135.0,090.0,130926,,,A*6C
$GPGGA,060133.00,1343.307,N,08020.380,E,1,09,1.1,203050.00,M,-28.0,M,,0000*41
$GPRMC,060133.00,A,1343.307,N,08020.380,E,8222.4,090.0,130926,,,A*61
$GPGGA,060134.00,1343.308,N,08020.522,E,1,09,1.1,207347.50,M,-28.0,M,,0000*43
$GPRMC,060134.00,A,1343.308,N,08020.522,E,8309.9,090.0,130926,,,A*62
$GPGGA,060135.00,1343.309,N,08020.664,E,1,09,1.1,211690.00,M,-28.0,M,,0000*4F
$GPRMC,060135.00,A,1343.309,N,08020.664,E,8397.4,090.0,130926,,,A*69
$GPGGA,060136.00,1343.310,N,08020.808,E,1,09,1.1,216077.50,M,-28.0,M,,0000*4D
$GPRMC,060136.00,A,1343.310,N,08020.808,E,8484.9,090.0,130926,,,A*6E
$GPGGA,060137.00,1343.312,N,08020.954,E,1,09,1.1,220510.00,M,-28.0,M,,0000*42
$GPRMC,060137.00,A,1343.312,N,08020.954,E,8572.3,090.0,130926,,,A*67
$GPGGA,060138.00,1343.313,N,08021.101,E,1,09,1.1,224987.50,M,-28.0,M,,0000*46
$GPRMC,060138.00,A,1343.313,N,08021.101,E,8659.8,090.0,130926,,,A*61
$GPGGA,060139.00,1343.314,N,08021.249,E,1,09,1.1,229510.00,M,-28.0,M,,0000*45
$GPRMC,060139.00,A,1343.314,N,08021.249,E,8747.3,090.0,130926,,,A*6D
$GPGGA,060140.00,1343.315,N,08021.399,E,1,09,1.1,234077.50,M,-28.0,M,,0000*4B
$GPRMC,060140.00,A,1343.315,N,08021.399,E,8834.8,090.0,130926,,,A*6E
$GPGGA,060141.00,1343.316,N,08021.551,E,1,09,1.1,238690.00,M,-28.0,M,,0000*4D
$GPRMC,060141.00,A,1343.316,N,08021.551,E,8922.2,090.0,130926,,,A*62
$GPGGA,060142.00,1343.318,N,08021.704,E,1,09,1.1,243347.50,M,-28.0,M,,0000*44
$GPRMC,060142.00,A,1343.318,N,08021.704,E,9009.7,090.0,130926,,,A*69
$GPGGA,060143.00,1343.319,N,08021.858,E,1,09,1.1,248050.00,M,-28.0,M,,0000*49
$GPRMC,060143.00,A,1343.319,N,08021.858,E,9097.2,090.0,130926,,,A*6D
$GPGGA,060144.00,1343.320,N,08022.014,E,1,09,1.1,252797.50,M,-28.0,M,,0000*45
$GPRMC,060144.00,A,1343.320,N,08022.014,E,9184.6,090.0,130926,,,A*64
$GPGGA,060145.00,1343.321,N,08022.171,E,1,09,1.1,257590.00,M,-28.0,M,,0000*42
$GPRMC,060145.00,A,1343.321,N,08022.171,E,9272.1,090.0,130926,,,A*6B
$GPGGA,060146.00,1343.322,N,08022.330,E,1,09,1.1,262427.50,M,-28.0,M,,0000*4B
$GPRMC,060146.00,A,1343.322,N,08022.330,E,9359.6,090.0,130926,,,A*63
$GPGGA,060147.00,1343.324,N,08022.491,E,1,09,1.1,267310.00,M,-28.0,M,,0000*43
$GPRMC,060147.00,A,1343.324,N,08022.491,E,9447.1,090.0,130926,,,A*67
$GPGGA,060148.00,1343.325,N,08022.653,E,1,09,1.1,272237.50,M,-28.0,M,,0000*44
$GPRMC,060148.00,A,1343.325,N,08022.653,E,9534.5,090.0,130926,,,A*64
$GPGGA,060149.00,1343.326,N,08022.816,E,1,09,1.1,277210.00,M,-28.0,M,,0000*4C
$GPRMC,060149.00,A,1343.326,N,08022.816,E,9622.0,090.0,130926,,,A*68
$GPGGA,060150.00,1343.327,N,08022.982,E,1,09,1.1,282227.50,M,-28.0,M,,0000*42
$GPRMC,060150.00,A,1343.327,N,08022.982,E,9709.5,090.0,130926,,,A*60
$GPGGA,060151.00,1343.328,N,08023.148,E,1,09,1.1,287290.00,M,-28.0,M,,0000*4F
$GPRMC,060151.00,A,1343.328,N,08023.148,E,9797.0,090.0,130926,,,A*63
$GPGGA,060152.00,1343.330,N,08023.316,E,1,09,1.1,292397.50,M,-28.0,M,,0000*4B
$GPRMC,060152.00,A,1343.330,N,08023.316,E,9884.4,090.0,130926,,,A*69
$GPGGA,060153.00,1343.331,N,08023.485,E,1,09,1.1,297550.00,M,-28.0,M,,0000*4B
$GPRMC,060153.00,A,1343.331,N,08023.485,E,9971.9,090.0,130926,,,A*62
$GPGGA,060154.00,1343.332,N,08023.656,E,1,09,1.1,302747.50,M,-28.0,M,,0000*4F
$GPRMC,060154.00,A,1343.332,N,08023.656,E,10059.4,090.0,130926,,,A*5C
$GPGGA,060155.00,1343.333,N,08023.829,E,1,09,1.1,307990.00,M,-28.0,M,,0000*4D
$GPRMC,060155.00,A,1343.333,N,08023.829,E,10146.8,090.0,130926,,,A*59
$GPGGA,060156.00,1343.334,N,08024.003,E,1,09,1.1,313277.50,M,-28.0,M,,0000*4C
$GPRMC,060156.00,A,1343.334,N,08024.003,E,10234.3,090.0,130926,,,A*57
$GPGGA,060157.00,1343.336,N,08024.178,E,1,09,1.1,318610.00,M,-28.0,M,,0000*49
$GPRMC,060157.00,A,1343.336,N,08024.178,E,10321.8,090.0,130926,,,A*57
$GPGGA,060158.00,1343.337,N,08024.355,E,1,09,1.1,323987.50,M,-28.0,M,,0000*46
$GPRMC,060158.00,A,1343.337,N,08024.355,E,10409.3,090.0,130926,,,A*52
$GPGGA,060159.00,1343.338,N,08024.534,E,1,09,1.1,329410.00,M,-28.0,M,,0000*45
$GPRMC,060159.00,A,1343.338,N,08024.534,E,10496.7,090.0,130926,,,A*5F
